{
  "norad_id": 59663,
  "name": "STARLINK-31909",
  "history": [
    {
      "epoch": "2026-03-28T14:58:45.078240Z",
      "apogee_km": 484.2041170429866,
      "perigee_km": 481.9138498237162,
      "latitude_deg": -1.2395293466588889e-05,
      "longitude_deg": -116.22854844333371,
      "height_km": 482.9365594565687,
      "semi_major_axis_km": 6861.195983433351,
      "eccentricity": 0.0001669,
      "inclination_deg": 43.0056,
      "raan_deg": 294.5012,
      "arg_perigee_deg": 264.9877,
      "mean_anomaly_deg": 95.0784,
      "mean_motion_rev_day": 15.27576698
    },
    {
      "epoch": "2026-03-28T21:15:21.640896Z",
      "apogee_km": 483.9476015160344,
      "perigee_km": 482.05392749303064,
      "latitude_deg": -3.909466468586246e-05,
      "longitude_deg": 147.88709862298697,
      "height_km": 482.80441917066,
      "semi_major_axis_km": 6861.137764504532,
      "eccentricity": 0.000138,
      "inclination_deg": 43.0023,
      "raan_deg": 293.027,
      "arg_perigee_deg": 268.3832,
      "mean_anomaly_deg": 91.6861,
      "mean_motion_rev_day": 15.27596141
    }
  ]
}